NORAD_CAT_ID,OBJECT_NAME,OBJECT_TYPE,EPOCH,MEAN_MOTION,ECCENTRICITY,INCLINATION,RA_OF_ASC_NODE,ARG_OF_PERICENTER,MEAN_ANOMALY,BSTAR,MEAN_MOTION_DOT,MEAN_MOTION_DDOT,TLE_LINE0,TLE_LINE1,TLE_LINE2,SEMIMAJOR_AXIS,PERIOD,APOGEE,PERIGEE,DECAYED
54177.0,STARLINK-5186,PAYLOAD,2024-03-27 09:03:53,15.08846011,0.00012,53.2159,321.7474,84.5753,275.5376,0.00061782,9.56e-05,0.0,0 STARLINK-5186,1 54177U 22141W   24087.37769803  .00009560  00000-0  61782-3 0  9995,2 54177  53.2159 321.7474 0001200  84.5753 275.5376 15.08846011 78323,6917.862,95.437,540.557,538.897,0.0
54177.0,STARLINK-5186,PAYLOAD,2024-03-27 20:11:35,15.08841745,0.0001289,53.2169,319.6652,89.9817,270.1323,0.00019227,2.774e-05,0.0,0 STARLINK-5186,1 54177U 22141W   24087.84137843  .00002774  00000-0  19227-3 0  9997,2 54177  53.2169 319.6652 0001289  89.9817 270.1323 15.08841745 78394,6917.875,95.437,540.632,538.848,0.0
54177.0,STARLINK-5186,PAYLOAD,2024-03-27 21:46:58,15.08842574,0.0001184,53.2174,319.3684,85.5342,274.5785,0.00033363,5.026e-05,0.0,0 STARLINK-5186,1 54177U 22141W   24087.90761802  .00005026  00000-0  33363-3 0  9992,2 54177  53.2174 319.3684 0001184  85.5342 274.5785 15.08842574 78404,6917.873,95.437,540.557,538.918,0.0
54177.0,STARLINK-5186,PAYLOAD,2024-03-28 21:37:44,15.08852069,0.0001395,53.2166,314.9059,95.8961,264.219,0.0003244,4.88e-05,0.0,0 STARLINK-5186,1 54177U 22141W   24088.90121265  .00004880  00000-0  32440-3 0  9998,2 54177  53.2166 314.9059 0001395  95.8961 264.2190 15.08852069 78559,6917.843,95.437,540.674,538.743,0.0
54177.0,STARLINK-5186,PAYLOAD,2024-03-29 00:48:30,15.0885408,0.0001399,53.2173,314.31,99.7411,260.3739,0.00030483,4.569e-05,0.0,0 STARLINK-5186,1 54177U 22141W   24089.03369090  .00004569  00000-0  30483-3 0  9992,2 54177  53.2173 314.3100 0001399  99.7411 260.3739 15.08854080 78578,6917.837,95.437,540.67,538.735,0.0
54177.0,STARLINK-5186,PAYLOAD,2024-03-29 21:28:31,15.08843785,0.0001206,53.2178,310.4446,110.1437,249.9685,8.7707e-05,1.108e-05,0.0,0 STARLINK-5186,1 54177U 22141W   24089.89481232  .00001108  00000-0  87707-4 0  9997,2 54177  53.2178 310.4446 0001206 110.1437 249.9685 15.08843785 78704,6917.869,95.437,540.568,538.9,0.0
54177.0,STARLINK-5186,PAYLOAD,2024-03-30 00:39:18,15.08845412,0.0001156,53.2172,309.8491,87.0466,273.0659,0.00016749,2.379e-05,0.0,0 STARLINK-5186,1 54177U 22141W   24090.02729305  .00002379  00000-0  16749-3 0  9998,2 54177  53.2172 309.8491 0001156  87.0466 273.0659 15.08845412 78728,6917.864,95.437,540.529,538.929,0.0
54177.0,STARLINK-5186,PAYLOAD,2024-03-30 21:19:19,15.08840873,0.000138,53.2173,305.9828,71.7459,288.3684,0.00037443,5.676e-05,0.0,0 STARLINK-5186,1 54177U 22141W   24090.88841788  .00005676  00000-0  37443-3 0  9999,2 54177  53.2173 305.9828 0001380  71.7459 288.3684 15.08840873 78858,6917.878,95.437,540.697,538.788,0.0
54177.0,STARLINK-5186,PAYLOAD,2024-03-31 13:13:10,15.08842207,0.0001099,53.2171,303.0126,86.266,273.8458,0.00019541,2.824e-05,0.0,0 STARLINK-5186,1 54177U 22141W   24091.55081559  .00002824  00000-0  19541-3 0  9997,2 54177  53.2171 303.0126 0001099  86.2660 273.8458 15.08842207 78950,6917.874,95.437,540.499,538.978,0.0
54177.0,STARLINK-5186,PAYLOAD,2024-03-31 21:10:05,15.0884699,0.0001098,53.2168,301.5272,95.818,264.2938,0.00039341,5.98e-05,0.0,0 STARLINK-5186,1 54177U 22141W   24091.88201327  .00005980  00000-0  39341-3 0  9996,2 54177  53.2168 301.5272 0001098  95.8180 264.2938 15.08846990 79000,6917.859,95.437,540.484,538.964,0.0
54177.0,STARLINK-5186,PAYLOAD,2024-04-01 00:20:52,15.08850645,0.0001123,53.2165,300.9309,86.3689,273.7432,0.00061581,9.529e-05,0.0,0 STARLINK-5186,1 54177U 22141W   24092.01449261  .00009529  00000-0  61581-3 0  9997,2 54177  53.2165 300.9309 0001123  86.3689 273.7432 15.08850645 79027,6917.848,95.437,540.49,538.936,0.0
54177.0,STARLINK-5186,PAYLOAD,2024-04-01 13:03:57,15.08840279,0.0001705,53.218,298.5522,81.9204,278.1981,7.4243e-05,8.94e-06,0.0,0 STARLINK-5186,1 54177U 22141W   24092.54441614  .00000894  00000-0  74243-4 0  9995,2 54177  53.2180 298.5522 0001705  81.9204 278.1981 15.08840279 79102,6917.88,95.438,540.924,538.565,0.0
54177.0,STARLINK-5186,PAYLOAD,2024-04-02 06:33:12,15.08834661,0.0001319,53.2178,295.2838,83.5975,276.5167,-1.7559e-05,-5.67e-06,0.0,0 STARLINK-5186,1 54177U 22141W   24093.27305956 -.00000567  00000-0 -17559-4 0  9990,2 54177  53.2178 295.2838 0001319  83.5975 276.5167 15.08834661 79215,6917.897,95.438,540.674,538.849,0.0
54177.0,STARLINK-5186,PAYLOAD,2024-04-02 22:27:03,15.08841083,0.0001284,53.2176,292.3097,83.6327,276.4812,7.8405e-05,9.6e-06,0.0,0 STARLINK-5186,1 54177U 22141W   24093.93545993  .00000960  00000-0  78405-4 0  9992,2 54177  53.2176 292.3097 0001284  83.6327 276.4812 15.08841083 79314,6917.877,95.437,540.63,538.854,0.0
54177.0,STARLINK-5186,PAYLOAD,2024-04-03 06:23:59,15.0884273,0.0001309,53.2177,290.8223,81.2617,278.8524,9.3901e-05,1.207e-05,0.0,0 STARLINK-5186,1 54177U 22141W   24094.26665984  .00001207  00000-0  93901-4 0  9995,2 54177  53.2177 290.8223 0001309  81.2617 278.8524 15.08842730 79364,6917.872,95.437,540.643,538.831,0.0
54177.0,STARLINK-5186,PAYLOAD,2024-04-03 19:07:03,15.08848415,8.1e-05,53.2176,288.4423,268.6997,91.3902,0.00027931,4.161e-05,0.0,0 STARLINK-5186,1 54177U 22141W   24094.79656878  .00004161  00000-0  27931-3 0  9996,2 54177  53.2176 288.4423 0000810 268.6997  91.3902 15.08848415 79449,6917.855,95.437,540.28,539.159,0.0
54177.0,STARLINK-5186,PAYLOAD,2024-04-03 22:17:45,15.08940311,8.39e-05,53.2168,287.846,90.1953,269.9135,0.0015402,0.00024377,0.0,0 STARLINK-5186,1 54177U 22141W   24094.92900262  .00024377  00000-0  15402-2 0  9990,2 54177  53.2168 287.8460 0000839  90.1953 269.9135 15.08940311 79466,6917.574,95.431,540.019,538.858,0.0
54177.0,STARLINK-5186,PAYLOAD,2024-04-04 06:14:45,15.08847348,0.0001341,53.2165,286.3603,79.5987,280.5156,9.1413e-05,1.167e-05,0.0,0 STARLINK-5186,1 54177U 22141W   24095.26024419  .00001167  00000-0  91413-4 0  9999,2 54177  53.2165 286.3603 0001341  79.5987 280.5156 15.08847348 79517,6917.858,95.437,540.651,538.795,0.0
54177.0,STARLINK-5186,PAYLOAD,2024-04-04 22:08:35,15.08848237,0.0001103,53.2158,283.389,66.8623,293.2485,-2.2636e-05,-6.48e-06,0.0,0 STARLINK-5186,1 54177U 22141W   24095.92263826 -.00000648  00000-0 -22636-4 0  9995,2 54177  53.2158 283.3890 0001103  66.8623 293.2485 15.08848237 79611,6917.855,95.437,540.483,538.957,0.0
54177.0,STARLINK-5186,PAYLOAD,2024-04-05 12:27:04,15.08831186,9.13e-05,53.2145,280.7132,57.7797,302.3283,-0.00032057,-5.385e-05,0.0,0 STARLINK-5186,1 54177U 22141W   24096.51880439 -.00005385  00000-0 -32057-3 0  9996,2 54177  53.2145 280.7132 0000913  57.7797 302.3283 15.08831186 79709,6917.907,95.438,540.404,539.141,0.0
54177.0,STARLINK-5186,PAYLOAD,2024-04-05 18:48:37,15.08840289,9.66e-05,53.2172,279.52,88.5374,271.5729,-0.00013867,-2.494e-05,0.0,0 STARLINK-5186,1 54177U 22141W   24096.78376680 -.00002494  00000-0 -13867-3 0  9999,2 54177  53.2172 279.5200 0000966  88.5374 271.5729 15.08840289 79742,6917.88,95.438,540.413,539.076,0.0
54177.0,STARLINK-5186,PAYLOAD,2024-04-06 12:17:51,15.08842799,9.76e-05,53.2175,276.2488,85.7496,274.3608,-0.00024519,-4.188e-05,0.0,0 STARLINK-5186,1 54177U 22141W   24097.51240569 -.00004188  00000-0 -24519-3 0  9995,2 54177  53.2175 276.2488 0000976  85.7496 274.3608 15.08842799 79859,6917.872,95.437,540.412,539.062,0.0
54177.0,STARLINK-5186,PAYLOAD,2024-04-06 18:39:25,15.08828734,0.0001277,53.2163,275.0621,80.9871,279.1265,1.7188e-05,-1.4e-07,0.0,0 STARLINK-5186,1 54177U 22141W   24097.77737279 -.00000014  00000-0  17188-4 0  9990,2 54177  53.2163 275.0621 0001277  80.9871 279.1265 15.08828734 79890,6917.915,95.438,540.663,538.896,0.0
54177.0,STARLINK-5186,PAYLOAD,2024-04-07 10:33:16,15.08825323,0.0001277,53.2162,272.0883,88.9697,271.1441,0.00014949,2.091e-05,0.0,0 STARLINK-5186,1 54177U 22141W   24098.43977935  .00002091  00000-0  14949-3 0  9996,2 54177  53.2162 272.0883 0001277  88.9697 271.1441 15.08825323 79990,6917.925,95.438,540.674,538.907,0.0
54177.0,STARLINK-5186,PAYLOAD,2024-04-07 18:30:12,15.08826486,0.0001212,53.2159,270.6006,87.2264,272.8867,0.00014195,1.971e-05,0.0,0 STARLINK-5186,1 54177U 22141W   24098.77098249  .00001971  00000-0  14195-3 0  9994,2 54177  53.2159 270.6006 0001212  87.2264 272.8867 15.08826486 80047,6917.922,95.438,540.625,538.948,0.0
54177.0,STARLINK-5186,PAYLOAD,2024-04-08 04:02:31,15.08831497,0.0001209,53.2149,268.8158,84.9278,275.1852,0.00014555,2.029e-05,0.0,0 STARLINK-5186,1 54177U 22141W   24099.16842250  .00002029  00000-0  14555-3 0  9992,2 54177  53.2149 268.8158 0001209  84.9278 275.1852 15.08831497 80103,6917.906,95.438,540.608,538.935,0.0
54177.0,STARLINK-5186,PAYLOAD,2024-04-08 11:59:27,15.08831034,0.0001308,53.2163,267.3282,82.4216,277.6925,0.00010434,1.373e-05,0.0,0 STARLINK-5186,1 54177U 22141W   24099.49962688  .00001373  00000-0  10434-3 0  9999,2 54177  53.2163 267.3282 0001308  82.4216 277.6925 15.08831034 80156,6917.908,95.438,540.678,538.868,0.0
54177.0,STARLINK-5186,PAYLOAD,2024-04-08 18:21:00,15.08836306,0.0001279,53.2164,266.1392,82.9465,277.1673,0.00014188,1.971e-05,0.0,0 STARLINK-5186,1 54177U 22141W   24099.76458392  .00001971  00000-0  14188-3 0  9995,2 54177  53.2164 266.1392 0001279  82.9465 277.1673 15.08836306 80190,6917.892,95.438,540.641,538.872,0.0
54177.0,STARLINK-5186,PAYLOAD,2024-04-09 03:53:18,15.08838376,0.0001301,53.217,264.3551,81.778,278.336,0.0001514,2.122e-05,0.0,0 STARLINK-5186,1 54177U 22141W   24100.16202376  .00002122  00000-0  15140-3 0  9999,2 54177  53.2170 264.3551 0001301  81.7780 278.3360 15.08838376 80259,6917.885,95.438,540.65,538.85,0.0
54177.0,STARLINK-5186,PAYLOAD,2024-04-09 19:47:10,15.08839308,0.0001333,53.2181,261.3824,87.8527,272.2618,0.00012,1.622e-05,0.0,0 STARLINK-5186,1 54177U 22141W   24100.82442558  .00001622  00000-0  12000-3 0  9996,2 54177  53.2181 261.3824 0001333  87.8527 272.2618 15.08839308 80358,6917.883,95.438,540.67,538.825,0.0
